ORBCOMM FM37            
1 33064U 08031E   24119.85114564  .00002494  00000+0  38484-3 0  9997
2 33064  48.4380 148.2819 0005670  34.8263 135.6690 14.76338434852752
ORBCOMM FM40            
1 33065U 08031F   24119.79006748  .00003254  00000+0  47863-3 0  9991
2 33065  48.4403 138.0563 0006936  44.8451 125.1872 14.77638816852785
VESSELSAT 1             
1 37840U 11058C   24120.54108861  .00000460  00000+0  10697-3 0  9994
2 37840  19.9614  76.4561 0013531 317.6748  42.2613 14.11145600648034
ORBCOMM FM109           
1 40086U 14040A   24119.84593110  .00001341  00000+0  33558-3 0  9990
2 40086  47.0012 170.8390 0002603 235.7517 124.3122 14.56553504520621
ORBCOMM FM107           
1 40087U 14040B   24120.42900698  .00001157  00000+0  29463-3 0  9995
2 40087  47.0025 169.0568 0001672 224.0700 136.0052 14.56562225520827
ORBCOMM FM106           
1 40088U 14040C   24119.81839178  .00002102  00000+0  40350-3 0  9990
2 40088  47.0612  25.9295 0018328 302.9237  56.9890 14.66963653522580
ORBCOMM FM111           
1 40089U 14040D   24120.16661403  .00003671  00000+0  48334-3 0  9997
2 40089  47.0030 286.6144 0032524  14.5203 345.6619 14.81666815528734
ORBCOMM FM104           
1 40090U 14040E   24119.90805025  .00001104  00000+0  29162-3 0  9996
2 40090  47.0032 200.2939 0016145 114.6633 245.5935 14.55088151520353
