<?xml version="1.0" encoding="UTF-8"?>
<ndm xmlns:xsi="http://www.w3.org/2001/XMLSchema-instance" xsi:noNamespaceSchemaLocation="https://sanaregistry.org/r/ndmxml_unqualified/ndmxml-2.0.0-master-2.0.xsd">
<omm id="CCSDS_OMM_VERS" version="2.0">
<header><CREATION_DATE/><ORIGINATOR/></header><body><segment><metadata><OBJECT_NAME>ORBCOMM FM37</OBJECT_NAME><OBJECT_ID>2008-031E</OBJECT_ID><CENTER_NAME>EARTH</CENTER_NAME><REF_FRAME>TEME</REF_FRAME><TIME_SYSTEM>UTC</TIME_SYSTEM><MEAN_ELEMENT_THEORY>SGP4</MEAN_ELEMENT_THEORY></metadata><data><meanElements><EPOCH>2024-04-28T20:25:38.983296</EPOCH><MEAN_MOTION>14.76338434</MEAN_MOTION><ECCENTRICITY>.000567</ECCENTRICITY><INCLINATION>48.4380</INCLINATION><RA_OF_ASC_NODE>148.2819</RA_OF_ASC_NODE><ARG_OF_PERICENTER>34.8263</ARG_OF_PERICENTER><MEAN_ANOMALY>135.6690</MEAN_ANOMALY></meanElements><tleParameters><EPHEMERIS_TYPE>0</EPHEMERIS_TYPE><CLASSIFICATION_TYPE>U</CLASSIFICATION_TYPE><NORAD_CAT_ID>33064</NORAD_CAT_ID><ELEMENT_SET_NO>999</ELEMENT_SET_NO><REV_AT_EPOCH>85275</REV_AT_EPOCH><BSTAR>.38484E-3</BSTAR><MEAN_MOTION_DOT>.2494E-4</MEAN_MOTION_DOT><MEAN_MOTION_DDOT>0</MEAN_MOTION_DDOT></tleParameters></data></segment></body></omm>
<omm id="CCSDS_OMM_VERS" version="2.0">
<header><CREATION_DATE/><ORIGINATOR/></header><body><segment><metadata><OBJECT_NAME>ORBCOMM FM40</OBJECT_NAME><OBJECT_ID>2008-031F</OBJECT_ID><CENTER_NAME>EARTH</CENTER_NAME><REF_FRAME>TEME</REF_FRAME><TIME_SYSTEM>UTC</TIME_SYSTEM><MEAN_ELEMENT_THEORY>SGP4</MEAN_ELEMENT_THEORY></metadata><data><meanElements><EPOCH>2024-04-28T18:57:41.830272</EPOCH><MEAN_MOTION>14.77638816</MEAN_MOTION><ECCENTRICITY>.0006936</ECCENTRICITY><INCLINATION>48.4403</INCLINATION><RA_OF_ASC_NODE>138.0563</RA_OF_ASC_NODE><ARG_OF_PERICENTER>44.8451</ARG_OF_PERICENTER><MEAN_ANOMALY>125.1872</MEAN_ANOMALY></meanElements><tleParameters><EPHEMERIS_TYPE>0</EPHEMERIS_TYPE><CLASSIFICATION_TYPE>U</CLASSIFICATION_TYPE><NORAD_CAT_ID>33065</NORAD_CAT_ID><ELEMENT_SET_NO>999</ELEMENT_SET_NO><REV_AT_EPOCH>85278</REV_AT_EPOCH><BSTAR>.47863E-3</BSTAR><MEAN_MOTION_DOT>.3254E-4</MEAN_MOTION_DOT><MEAN_MOTION_DDOT>0</MEAN_MOTION_DDOT></tleParameters></data></segment></body></omm>
<omm id="CCSDS_OMM_VERS" version="2.0">
<header><CREATION_DATE/><ORIGINATOR/></header><body><segment><metadata><OBJECT_NAME>VESSELSAT 1</OBJECT_NAME><OBJECT_ID>2011-058C</OBJECT_ID><CENTER_NAME>EARTH</CENTER_NAME><REF_FRAME>TEME</REF_FRAME><TIME_SYSTEM>UTC</TIME_SYSTEM><MEAN_ELEMENT_THEORY>SGP4</MEAN_ELEMENT_THEORY></metadata><data><meanElements><EPOCH>2024-04-29T12:59:10.055904</EPOCH><MEAN_MOTION>14.11145600</MEAN_MOTION><ECCENTRICITY>.0013531</ECCENTRICITY><INCLINATION>19.9614</INCLINATION><RA_OF_ASC_NODE>76.4561</RA_OF_ASC_NODE><ARG_OF_PERICENTER>317.6748</ARG_OF_PERICENTER><MEAN_ANOMALY>42.2613</MEAN_ANOMALY></meanElements><tleParameters><EPHEMERIS_TYPE>0</EPHEMERIS_TYPE><CLASSIFICATION_TYPE>U</CLASSIFICATION_TYPE><NORAD_CAT_ID>37840</NORAD_CAT_ID><ELEMENT_SET_NO>999</ELEMENT_SET_NO><REV_AT_EPOCH>64803</REV_AT_EPOCH><BSTAR>.10697E-3</BSTAR><MEAN_MOTION_DOT>.46E-5</MEAN_MOTION_DOT><MEAN_MOTION_DDOT>0</MEAN_MOTION_DDOT></tleParameters></data></segment></body></omm>
<omm id="CCSDS_OMM_VERS" version="2.0">
<header><CREATION_DATE/><ORIGINATOR/></header><body><segment><metadata><OBJECT_NAME>ORBCOMM FM109</OBJECT_NAME><OBJECT_ID>2014-040A</OBJECT_ID><CENTER_NAME>EARTH</CENTER_NAME><REF_FRAME>TEME</REF_FRAME><TIME_SYSTEM>UTC</TIME_SYSTEM><MEAN_ELEMENT_THEORY>SGP4</MEAN_ELEMENT_THEORY></metadata><data><meanElements><EPOCH>2024-04-28T20:18:08.447040</EPOCH><MEAN_MOTION>14.56553504</MEAN_MOTION><ECCENTRICITY>.0002603</ECCENTRICITY><INCLINATION>47.0012</INCLINATION><RA_OF_ASC_NODE>170.8390</RA_OF_ASC_NODE><ARG_OF_PERICENTER>235.7517</ARG_OF_PERICENTER><MEAN_ANOMALY>124.3122</MEAN_ANOMALY></meanElements><tleParameters><EPHEMERIS_TYPE>0</EPHEMERIS_TYPE><CLASSIFICATION_TYPE>U</CLASSIFICATION_TYPE><NORAD_CAT_ID>40086</NORAD_CAT_ID><ELEMENT_SET_NO>999</ELEMENT_SET_NO><REV_AT_EPOCH>52062</REV_AT_EPOCH><BSTAR>.33558E-3</BSTAR><MEAN_MOTION_DOT>.1341E-4</MEAN_MOTION_DOT><MEAN_MOTION_DDOT>0</MEAN_MOTION_DDOT></tleParameters></data></segment></body></omm>
<omm id="CCSDS_OMM_VERS" version="2.0">
<header><CREATION_DATE/><ORIGINATOR/></header><body><segment><metadata><OBJECT_NAME>ORBCOMM FM107</OBJECT_NAME><OBJECT_ID>2014-040B</OBJECT_ID><CENTER_NAME>EARTH</CENTER_NAME><REF_FRAME>TEME</REF_FRAME><TIME_SYSTEM>UTC</TIME_SYSTEM><MEAN_ELEMENT_THEORY>SGP4</MEAN_ELEMENT_THEORY></metadata><data><meanElements><EPOCH>2024-04-29T10:17:46.203072</EPOCH><MEAN_MOTION>14.56562225</MEAN_MOTION><ECCENTRICITY>.0001672</ECCENTRICITY><INCLINATION>47.0025</INCLINATION><RA_OF_ASC_NODE>169.0568</RA_OF_ASC_NODE><ARG_OF_PERICENTER>224.0700</ARG_OF_PERICENTER><MEAN_ANOMALY>136.0052</MEAN_ANOMALY></meanElements><tleParameters><EPHEMERIS_TYPE>0</EPHEMERIS_TYPE><CLASSIFICATION_TYPE>U</CLASSIFICATION_TYPE><NORAD_CAT_ID>40087</NORAD_CAT_ID><ELEMENT_SET_NO>999</ELEMENT_SET_NO><REV_AT_EPOCH>52082</REV_AT_EPOCH><BSTAR>.29463E-3</BSTAR><MEAN_MOTION_DOT>.1157E-4</MEAN_MOTION_DOT><MEAN_MOTION_DDOT>0</MEAN_MOTION_DDOT></tleParameters></data></segment></body></omm>
<omm id="CCSDS_OMM_VERS" version="2.0">
<header><CREATION_DATE/><ORIGINATOR/></header><body><segment><metadata><OBJECT_NAME>ORBCOMM FM106</OBJECT_NAME><OBJECT_ID>2014-040C</OBJECT_ID><CENTER_NAME>EARTH</CENTER_NAME><REF_FRAME>TEME</REF_FRAME><TIME_SYSTEM>UTC</TIME_SYSTEM><MEAN_ELEMENT_THEORY>SGP4</MEAN_ELEMENT_THEORY></metadata><data><meanElements><EPOCH>2024-04-28T19:38:29.049792</EPOCH><MEAN_MOTION>14.66963653</MEAN_MOTION><ECCENTRICITY>.0018328</ECCENTRICITY><INCLINATION>47.0612</INCLINATION><RA_OF_ASC_NODE>25.9295</RA_OF_ASC_NODE><ARG_OF_PERICENTER>302.9237</ARG_OF_PERICENTER><MEAN_ANOMALY>56.9890</MEAN_ANOMALY></meanElements><tleParameters><EPHEMERIS_TYPE>0</EPHEMERIS_TYPE><CLASSIFICATION_TYPE>U</CLASSIFICATION_TYPE><NORAD_CAT_ID>40088</NORAD_CAT_ID><ELEMENT_SET_NO>999</ELEMENT_SET_NO><REV_AT_EPOCH>52258</REV_AT_EPOCH><BSTAR>.4035E-3</BSTAR><MEAN_MOTION_DOT>.2102E-4</MEAN_MOTION_DOT><MEAN_MOTION_DDOT>0</MEAN_MOTION_DDOT></tleParameters></data></segment></body></omm>
<omm id="CCSDS_OMM_VERS" version="2.0">
<header><CREATION_DATE/><ORIGINATOR/></header><body><segment><metadata><OBJECT_NAME>ORBCOMM FM111</OBJECT_NAME><OBJECT_ID>2014-040D</OBJECT_ID><CENTER_NAME>EARTH</CENTER_NAME><REF_FRAME>TEME</REF_FRAME><TIME_SYSTEM>UTC</TIME_SYSTEM><MEAN_ELEMENT_THEORY>SGP4</MEAN_ELEMENT_THEORY></metadata><data><meanElements><EPOCH>2024-04-29T03:59:55.452192</EPOCH><MEAN_MOTION>14.81666815</MEAN_MOTION><ECCENTRICITY>.0032524</ECCENTRICITY><INCLINATION>47.0030</INCLINATION><RA_OF_ASC_NODE>286.6144</RA_OF_ASC_NODE><ARG_OF_PERICENTER>14.5203</ARG_OF_PERICENTER><MEAN_ANOMALY>345.6619</MEAN_ANOMALY></meanElements><tleParameters><EPHEMERIS_TYPE>0</EPHEMERIS_TYPE><CLASSIFICATION_TYPE>U</CLASSIFICATION_TYPE><NORAD_CAT_ID>40089</NORAD_CAT_ID><ELEMENT_SET_NO>999</ELEMENT_SET_NO><REV_AT_EPOCH>52873</REV_AT_EPOCH><BSTAR>.48334E-3</BSTAR><MEAN_MOTION_DOT>.3671E-4</MEAN_MOTION_DOT><MEAN_MOTION_DDOT>0</MEAN_MOTION_DDOT></tleParameters></data></segment></body></omm>
<omm id="CCSDS_OMM_VERS" version="2.0">
<header><CREATION_DATE/><ORIGINATOR/></header><body><segment><metadata><OBJECT_NAME>ORBCOMM FM104</OBJECT_NAME><OBJECT_ID>2014-040E</OBJECT_ID><CENTER_NAME>EARTH</CENTER_NAME><REF_FRAME>TEME</REF_FRAME><TIME_SYSTEM>UTC</TIME_SYSTEM><MEAN_ELEMENT_THEORY>SGP4</MEAN_ELEMENT_THEORY></metadata><data><meanElements><EPOCH>2024-04-28T21:47:35.541600</EPOCH><MEAN_MOTION>14.55088151</MEAN_MOTION><ECCENTRICITY>.0016145</ECCENTRICITY><INCLINATION>47.0032</INCLINATION><RA_OF_ASC_NODE>200.2939</RA_OF_ASC_NODE><ARG_OF_PERICENTER>114.6633</ARG_OF_PERICENTER><MEAN_ANOMALY>245.5935</MEAN_ANOMALY></meanElements><tleParameters><EPHEMERIS_TYPE>0</EPHEMERIS_TYPE><CLASSIFICATION_TYPE>U</CLASSIFICATION_TYPE><NORAD_CAT_ID>40090</NORAD_CAT_ID><ELEMENT_SET_NO>999</ELEMENT_SET_NO><REV_AT_EPOCH>52035</REV_AT_EPOCH><BSTAR>.29162E-3</BSTAR><MEAN_MOTION_DOT>.1104E-4</MEAN_MOTION_DOT><MEAN_MOTION_DDOT>0</MEAN_MOTION_DDOT></tleParameters></data></segment></body></omm>

</ndm>
